CCSDS_OMM_VERS = 2.0
CREATION_DATE  = 
ORIGINATOR     = 

OBJECT_NAME    = UNKNOWN
OBJECT_ID      = 
CENTER_NAME    = EARTH
REF_FRAME      = TEME
TIME_SYSTEM    = UTC
MEAN_ELEMENT_THEORY = SGP/SGP4

EPOCH          = 2025-11-27T09:46:26.555520
MEAN_MOTION    = 14.34771744
ECCENTRICITY   = .0048798
INCLINATION    = 99.7883
RA_OF_ASC_NODE = 130.1268
ARG_OF_PERICENTER = 59.3308
MEAN_ANOMALY   = 301.2670

EPHEMERIS_TYPE = 0
CLASSIFICATION_TYPE = U
NORAD_CAT_ID   = 82820
ELEMENT_SET_NO = 999
REV_AT_EPOCH   = 62343
BSTAR          = .12691E-2
MEAN_MOTION_DOT = .3594E-4
MEAN_MOTION_DDOT = 0

CCSDS_OMM_VERS = 2.0
CREATION_DATE  = 
ORIGINATOR     = 

OBJECT_NAME    = UNKNOWN
OBJECT_ID      = 
CENTER_NAME    = EARTH
REF_FRAME      = TEME
TIME_SYSTEM    = UTC
MEAN_ELEMENT_THEORY = SGP/SGP4

EPOCH          = 2025-10-31T12:06:51.685632
MEAN_MOTION    = 11.29112830
ECCENTRICITY   = .0168315
INCLINATION    = 65.0944
RA_OF_ASC_NODE = 126.2556
ARG_OF_PERICENTER = 345.0925
MEAN_ANOMALY   = 42.7807

EPHEMERIS_TYPE = 0
CLASSIFICATION_TYPE = U
NORAD_CAT_ID   = 82829
ELEMENT_SET_NO = 999
REV_AT_EPOCH   = 48131
BSTAR          = .21351E-2
MEAN_MOTION_DOT = .35E-6
MEAN_MOTION_DDOT = 0

CCSDS_OMM_VERS = 2.0
CREATION_DATE  = 
ORIGINATOR     = 

OBJECT_NAME    = UNKNOWN
OBJECT_ID      = 
CENTER_NAME    = EARTH
REF_FRAME      = TEME
TIME_SYSTEM    = UTC
MEAN_ELEMENT_THEORY = SGP/SGP4

EPOCH          = 2025-11-26T00:37:13.244736
MEAN_MOTION    = 13.87690285
ECCENTRICITY   = .0125827
INCLINATION    = 82.6889
RA_OF_ASC_NODE = 77.7115
ARG_OF_PERICENTER = 327.6078
MEAN_ANOMALY   = 31.7402

EPHEMERIS_TYPE = 0
CLASSIFICATION_TYPE = U
NORAD_CAT_ID   = 82854
ELEMENT_SET_NO = 999
REV_AT_EPOCH   = 60548
BSTAR          = .18533E-2
MEAN_MOTION_DOT = .235E-4
MEAN_MOTION_DDOT = 0

CCSDS_OMM_VERS = 2.0
CREATION_DATE  = 
ORIGINATOR     = 

OBJECT_NAME    = UNKNOWN
OBJECT_ID      = 
CENTER_NAME    = EARTH
REF_FRAME      = TEME
TIME_SYSTEM    = UTC
MEAN_ELEMENT_THEORY = SGP/SGP4

EPOCH          = 2025-11-27T03:45:40.132800
MEAN_MOTION    = 14.24238660
ECCENTRICITY   = .0041221
INCLINATION    = 99.9945
RA_OF_ASC_NODE = 223.1999
ARG_OF_PERICENTER = 328.2700
MEAN_ANOMALY   = 31.5991

EPHEMERIS_TYPE = 0
CLASSIFICATION_TYPE = U
NORAD_CAT_ID   = 82873
ELEMENT_SET_NO = 999
REV_AT_EPOCH   = 61901
BSTAR          = .19443E-2
MEAN_MOTION_DOT = .4472E-4
MEAN_MOTION_DDOT = 0

CCSDS_OMM_VERS = 2.0
CREATION_DATE  = 
ORIGINATOR     = 

OBJECT_NAME    = UNKNOWN
OBJECT_ID      = 
CENTER_NAME    = EARTH
REF_FRAME      = TEME
TIME_SYSTEM    = UTC
MEAN_ELEMENT_THEORY = SGP/SGP4

EPOCH          = 2025-11-26T05:07:04.582272
MEAN_MOTION    = 14.15096539
ECCENTRICITY   = .0377445
INCLINATION    = 98.6719
RA_OF_ASC_NODE = 313.9647
ARG_OF_PERICENTER = 330.6409
MEAN_ANOMALY   = 27.4020

EPHEMERIS_TYPE = 0
CLASSIFICATION_TYPE = U
NORAD_CAT_ID   = 82875
ELEMENT_SET_NO = 999
REV_AT_EPOCH   = 54213
BSTAR          = .43347E-3
MEAN_MOTION_DOT = .1625E-4
MEAN_MOTION_DDOT = 0

CCSDS_OMM_VERS = 2.0
CREATION_DATE  = 
ORIGINATOR     = 

OBJECT_NAME    = UNKNOWN
OBJECT_ID      = 
CENTER_NAME    = EARTH
REF_FRAME      = TEME
TIME_SYSTEM    = UTC
MEAN_ELEMENT_THEORY = SGP/SGP4

EPOCH          = 2025-11-27T07:08:29.189184
MEAN_MOTION    = 14.31228672
ECCENTRICITY   = .0024268
INCLINATION    = 98.9630
RA_OF_ASC_NODE = 85.8964
ARG_OF_PERICENTER = 94.2145
MEAN_ANOMALY   = 266.1811

EPHEMERIS_TYPE = 0
CLASSIFICATION_TYPE = U
NORAD_CAT_ID   = 82893
ELEMENT_SET_NO = 999
REV_AT_EPOCH   = 42176
BSTAR          = .30091E-2
MEAN_MOTION_DOT = .794E-4
MEAN_MOTION_DDOT = 0

CCSDS_OMM_VERS = 2.0
CREATION_DATE  = 
ORIGINATOR     = 

OBJECT_NAME    = UNKNOWN
OBJECT_ID      = 
CENTER_NAME    = EARTH
REF_FRAME      = TEME
TIME_SYSTEM    = UTC
MEAN_ELEMENT_THEORY = SGP/SGP4

EPOCH          = 2025-11-26T09:12:59.744448
MEAN_MOTION    = 13.27527729
ECCENTRICITY   = .0777383
INCLINATION    = 65.8357
RA_OF_ASC_NODE = 211.9692
ARG_OF_PERICENTER = 276.2703
MEAN_ANOMALY   = 75.0423

EPHEMERIS_TYPE = 0
CLASSIFICATION_TYPE = U
NORAD_CAT_ID   = 82912
ELEMENT_SET_NO = 999
REV_AT_EPOCH   = 57715
BSTAR          = .17263E-2
MEAN_MOTION_DOT = .4199E-4
MEAN_MOTION_DDOT = 0

CCSDS_OMM_VERS = 2.0
CREATION_DATE  = 
ORIGINATOR     = 

OBJECT_NAME    = UNKNOWN
OBJECT_ID      = 
CENTER_NAME    = EARTH
REF_FRAME      = TEME
TIME_SYSTEM    = UTC
MEAN_ELEMENT_THEORY = SGP/SGP4

EPOCH          = 2025-11-28T09:26:35.096928
MEAN_MOTION    = 13.22925587
ECCENTRICITY   = .03751
INCLINATION    = 99.9125
RA_OF_ASC_NODE = 127.6218
ARG_OF_PERICENTER = 38.7846
MEAN_ANOMALY   = 323.9572

EPHEMERIS_TYPE = 0
CLASSIFICATION_TYPE = U
NORAD_CAT_ID   = 82961
ELEMENT_SET_NO = 999
REV_AT_EPOCH   = 55381
BSTAR          = .16926E-1
MEAN_MOTION_DOT = .10294E-3
MEAN_MOTION_DDOT = 0

CCSDS_OMM_VERS = 2.0
CREATION_DATE  = 
ORIGINATOR     = 

OBJECT_NAME    = UNKNOWN
OBJECT_ID      = 
CENTER_NAME    = EARTH
REF_FRAME      = TEME
TIME_SYSTEM    = UTC
MEAN_ELEMENT_THEORY = SGP/SGP4

EPOCH          = 2025-11-25T04:12:29.328480
MEAN_MOTION    = 13.59947022
ECCENTRICITY   = .0002715
INCLINATION    = 100.1145
RA_OF_ASC_NODE = 48.1315
ARG_OF_PERICENTER = 181.0484
MEAN_ANOMALY   = 179.0649

EPHEMERIS_TYPE = 0
CLASSIFICATION_TYPE = U
NORAD_CAT_ID   = 82965
ELEMENT_SET_NO = 999
REV_AT_EPOCH   = 52206
BSTAR          = .17255E-2
MEAN_MOTION_DOT = .1239E-4
MEAN_MOTION_DDOT = 0

CCSDS_OMM_VERS = 2.0
CREATION_DATE  = 
ORIGINATOR     = 

OBJECT_NAME    = UNKNOWN
OBJECT_ID      = 
CENTER_NAME    = EARTH
REF_FRAME      = TEME
TIME_SYSTEM    = UTC
MEAN_ELEMENT_THEORY = SGP/SGP4

EPOCH          = 2025-11-28T16:22:29.495712
MEAN_MOTION    = 0.99117873
ECCENTRICITY   = .012437
INCLINATION    = 6.2200
RA_OF_ASC_NODE = 290.7474
ARG_OF_PERICENTER = 251.1107
MEAN_ANOMALY   = 293.0807

EPHEMERIS_TYPE = 0
CLASSIFICATION_TYPE = U
NORAD_CAT_ID   = 83903
ELEMENT_SET_NO = 999
REV_AT_EPOCH   = 4352
BSTAR          = 0
MEAN_MOTION_DOT = -.24E-5
MEAN_MOTION_DDOT = 0

CCSDS_OMM_VERS = 2.0
CREATION_DATE  = 
ORIGINATOR     = 

OBJECT_NAME    = UNKNOWN
OBJECT_ID      = 
CENTER_NAME    = EARTH
REF_FRAME      = TEME
TIME_SYSTEM    = UTC
MEAN_ELEMENT_THEORY = SGP/SGP4

EPOCH          = 2025-11-27T08:23:41.003232
MEAN_MOTION    = 1.02663492
ECCENTRICITY   = .0233847
INCLINATION    = 5.8205
RA_OF_ASC_NODE = 297.6037
ARG_OF_PERICENTER = 272.4870
MEAN_ANOMALY   = 261.0946

EPHEMERIS_TYPE = 0
CLASSIFICATION_TYPE = U
NORAD_CAT_ID   = 83934
ELEMENT_SET_NO = 999
REV_AT_EPOCH   = 4512
BSTAR          = 0
MEAN_MOTION_DOT = -.229E-5
MEAN_MOTION_DDOT = 0

CCSDS_OMM_VERS = 2.0
CREATION_DATE  = 
ORIGINATOR     = 

OBJECT_NAME    = UNKNOWN
OBJECT_ID      = 
CENTER_NAME    = EARTH
REF_FRAME      = TEME
TIME_SYSTEM    = UTC
MEAN_ELEMENT_THEORY = SGP/SGP4

EPOCH          = 2025-11-28T09:12:04.827744
MEAN_MOTION    = 5.31799795
ECCENTRICITY   = .5070797
INCLINATION    = 18.2539
RA_OF_ASC_NODE = 235.5310
ARG_OF_PERICENTER = 114.3972
MEAN_ANOMALY   = 305.7139

EPHEMERIS_TYPE = 0
CLASSIFICATION_TYPE = U
NORAD_CAT_ID   = 83970
ELEMENT_SET_NO = 999
REV_AT_EPOCH   = 19544
BSTAR          = .62736E-2
MEAN_MOTION_DOT = .5699E-4
MEAN_MOTION_DDOT = 0

CCSDS_OMM_VERS = 2.0
CREATION_DATE  = 
ORIGINATOR     = 

OBJECT_NAME    = UNKNOWN
OBJECT_ID      = 
CENTER_NAME    = EARTH
REF_FRAME      = TEME
TIME_SYSTEM    = UTC
MEAN_ELEMENT_THEORY = SGP/SGP4

EPOCH          = 2025-11-20T10:50:40.316064
MEAN_MOTION    = 2.16233459
ECCENTRICITY   = .6142325
INCLINATION    = 22.4931
RA_OF_ASC_NODE = 182.0614
ARG_OF_PERICENTER = 52.9351
MEAN_ANOMALY   = 348.9531

EPHEMERIS_TYPE = 0
CLASSIFICATION_TYPE = U
NORAD_CAT_ID   = 84006
ELEMENT_SET_NO = 999
REV_AT_EPOCH   = 8374
BSTAR          = 0
MEAN_MOTION_DOT = -.31E-6
MEAN_MOTION_DDOT = 0

CCSDS_OMM_VERS = 2.0
CREATION_DATE  = 
ORIGINATOR     = 

OBJECT_NAME    = UNKNOWN
OBJECT_ID      = 
CENTER_NAME    = EARTH
REF_FRAME      = TEME
TIME_SYSTEM    = UTC
MEAN_ELEMENT_THEORY = SGP/SGP4

EPOCH          = 2025-11-28T02:58:03.627840
MEAN_MOTION    = 7.41762038
ECCENTRICITY   = .3843527
INCLINATION    = 65.1697
RA_OF_ASC_NODE = 270.3715
ARG_OF_PERICENTER = 20.2963
MEAN_ANOMALY   = 351.6064

EPHEMERIS_TYPE = 0
CLASSIFICATION_TYPE = U
NORAD_CAT_ID   = 84188
ELEMENT_SET_NO = 999
REV_AT_EPOCH   = 4017
BSTAR          = .24089E+0
MEAN_MOTION_DOT = .380164E-2
MEAN_MOTION_DDOT = 0

CCSDS_OMM_VERS = 2.0
CREATION_DATE  = 
ORIGINATOR     = 

OBJECT_NAME    = UNKNOWN
OBJECT_ID      = 
CENTER_NAME    = EARTH
REF_FRAME      = TEME
TIME_SYSTEM    = UTC
MEAN_ELEMENT_THEORY = SGP/SGP4

EPOCH          = 2025-11-27T01:36:19.623456
MEAN_MOTION    = 3.16866969
ECCENTRICITY   = .6564355
INCLINATION    = 20.3515
RA_OF_ASC_NODE = 283.2390
ARG_OF_PERICENTER = 48.1647
MEAN_ANOMALY   = 351.6922

EPHEMERIS_TYPE = 0
CLASSIFICATION_TYPE = U
NORAD_CAT_ID   = 84232
ELEMENT_SET_NO = 999
REV_AT_EPOCH   = 10419
BSTAR          = .59817E-2
MEAN_MOTION_DOT = .727E-4
MEAN_MOTION_DDOT = 0

CCSDS_OMM_VERS = 2.0
CREATION_DATE  = 
ORIGINATOR     = 

OBJECT_NAME    = UNKNOWN
OBJECT_ID      = 
CENTER_NAME    = EARTH
REF_FRAME      = TEME
TIME_SYSTEM    = UTC
MEAN_ELEMENT_THEORY = SGP/SGP4

EPOCH          = 2025-11-26T14:42:19.601568
MEAN_MOTION    = 2.62505286
ECCENTRICITY   = .6895268
INCLINATION    = 9.4496
RA_OF_ASC_NODE = 342.2044
ARG_OF_PERICENTER = 80.0549
MEAN_ANOMALY   = 345.6549

EPHEMERIS_TYPE = 0
CLASSIFICATION_TYPE = U
NORAD_CAT_ID   = 84236
ELEMENT_SET_NO = 999
REV_AT_EPOCH   = 11355
BSTAR          = .24652E-2
MEAN_MOTION_DOT = .26E-5
MEAN_MOTION_DDOT = 0

